H1 CPF 01  gfz 2022 12 31 13  8652 tandemx   
H2 1003001  6202 36605    2022 12 31 12 59 42 2023 01 05 00 00 42   120 1 1  0 0 0
H9
10 0 59947  35982.000000  0   -1588597.198   4072145.900   5313940.758
10 0 59947  36102.000000  0   -1120733.884   3471732.543   5832677.450
10 0 59947  36222.000000  0    -644411.455   2802429.608   6248833.165
10 0 59947  36342.000000  0    -169054.521   2075875.912   6555126.547
10 0 59947  36462.000000  0     296148.364   1304862.051   6746203.946
10 0 59947  36582.000000  0     742421.754    503102.175   6818727.831
10 0 59947  36702.000000  0    1161567.793   -315009.996   6771430.495
10 0 59947  36822.000000  0    1546115.924  -1134658.687   6605135.935
10 0 59947  36942.000000  0    1889456.032  -1940874.022   6322746.525
10 0 59947  37062.000000  0    2185952.666  -2718805.219   5929196.353
10 0 59947  37182.000000  0    2431038.988  -3453995.974   5431370.264
10 0 59947  37302.000000  0    2621288.216  -4132656.154   4837988.536
10 0 59947  37422.000000  0    2754461.463  -4741924.994   4159460.031
10 0 59947  37542.000000  0    2829532.217  -5270121.830   3407703.475
10 0 59947  37662.000000  0    2846685.047  -5706977.798   2595939.741
10 0 59947  37782.000000  0    2807288.714  -6043843.883   1738457.741
10 0 59947  37902.000000  0    2713843.532  -6273867.608    850358.557
10 0 59947  38022.000000  0    2569906.306  -6392136.711    -52715.442
10 0 59947  38142.000000  0    2379993.129  -6395786.355   -954864.542
10 0 59947  38262.000000  0    2149461.447  -6284063.303  -1840222.171
10 0 59947  38382.000000  0    1884375.266  -6058347.431  -2693241.445
10 0 59947  38502.000000  0    1591356.738  -5722131.046  -3498975.822
10 0 59947  38622.000000  0    1277428.437  -5280952.664  -4243342.912
10 0 59947  38742.000000  0     949853.148  -4742294.059  -4913368.803
10 0 59947  38862.000000  0     615972.152  -4115441.616  -5497408.783
10 0 59947  38982.000000  0     283046.421  -3411315.916  -5985341.600
10 0 59947  39102.000000  0     -41895.873  -2642273.223  -6368734.198
10 0 59947  39222.000000  0    -352202.409  -1821884.048  -6640975.773
10 0 59947  39342.000000  0    -641727.943   -964693.035  -6797380.822
10 0 59947  39462.000000  0    -904951.274    -85963.638  -6835261.658
10 0 59947  39582.000000  0   -1137076.966    798588.686  -6753968.492
10 0 59947  39702.000000  0   -1334120.503   1673069.945  -6554898.896
10 0 59947  39822.000000  0   -1492975.110   2521685.848  -6241476.100
10 0 59947  39942.000000  0   -1611460.152   3329020.821  -5819098.078
10 0 59947  40062.000000  0   -1688350.521   4080315.680  -5295054.277
10 0 59947  40182.000000  0   -1723385.809   4761737.787  -4678411.484
10 0 59947  40302.000000  0   -1717259.871   5360640.748  -3979868.043
10 0 59947  40422.000000  0   -1671589.686   5865806.415  -3211577.052
10 0 59947  40542.000000  0   -1588863.790   6267664.065  -2386942.226
10 0 59947  40662.000000  0   -1472372.036   6558483.512  -1520388.618
10 0 59947  40782.000000  0   -1326117.208   6732535.087   -627110.041
10 0 59947  40902.000000  0   -1154710.800   6786212.744    277199.533
10 0 59947  41022.000000  0    -963254.695   6718117.821   1176628.580
10 0 59947  41142.000000  0    -757212.276   6529096.730   2055339.077
10 0 59947  41262.000000  0    -542272.006   6222230.281   2897854.941
10 0 59947  41382.000000  0    -324207.303   5802779.393   3689341.026
10 0 59947  41502.000000  0    -108736.968   5278089.477   4415869.088
10 0 59947  41622.000000  0      98611.238   4657453.619   5064669.557
10 0 59947  41742.000000  0     292631.844   3951933.647   5624354.266
10 0 59947  41862.000000  0     468562.229   3174156.115   6085111.927
10 0 59947  41982.000000  0     622190.634   2338077.775   6438876.703
10 0 59947  42102.000000  0     749949.683   1458729.233   6679462.955
10 0 59947  42222.000000  0     848993.932    551940.871   6802667.696
10 0 59947  42342.000000  0     917259.896   -365942.733   6806338.572
10 0 59947  42462.000000  0     953507.666  -1278356.310   6690410.280
10 0 59947  42582.000000  0     957343.365  -2168812.896   6456906.177
10 0 59947  42702.000000  0     929222.150  -3021201.945   6109905.815
10 0 59947  42822.000000  0     870431.185  -3820083.259   5655477.067
10 0 59947  42942.000000  0     783053.684  -4550968.347   5101573.893
10 0 59947  43062.000000  0     669915.469  -5200587.002   4457903.850
10 0 59947  43182.000000  0     534513.854  -5757136.686   3735764.487
10 0 59947  43302.000000  0     380929.631  -6210507.632   2947847.858
10 0 59947  43422.000000  0     213724.533  -6552476.850   2108017.208
10 0 59947  43542.000000  0      37826.164  -6776865.971   1231060.511
10 0 59947  43662.000000  0    -141596.067  -6879661.930    332425.526
10 0 59947  43782.000000  0    -319262.373  -6859094.177   -572061.969
10 0 59947  43902.000000  0    -489916.248  -6715664.274  -1466487.046
10 0 59947  44022.000000  0    -648457.078  -6452129.349  -2335133.762
10 0 59947  44142.000000  0    -790068.821  -6073442.045  -3162767.401
10 0 59947  44262.000000  0    -910341.816  -5586647.496  -3934906.146
10 0 59947  44382.000000  0   -1005384.314  -5000739.377  -4638075.546
10 0 59947  44502.000000  0   -1071920.995  -4326480.649  -5260039.573
10 0 59947  44622.000000  0   -1107376.710  -3576194.979  -5790006.203
10 0 59947  44742.000000  0   -1109943.507  -2763533.125  -6218805.158
10 0 59947  44862.000000  0   -1078630.049  -1903219.110  -6539035.598
10 0 59947  44982.000000  0   -1013292.866  -1010781.979  -6745182.061
10 0 59947  45102.000000  0    -914649.421   -102278.119  -6833699.667
10 0 59947  45222.000000  0    -784271.977    805992.585  -6803067.790
10 0 59947  45342.000000  0    -624562.622   1697771.406  -6653812.664
10 0 59947  45462.000000  0    -438710.752   2557124.067  -6388499.329
10 0 59947  45582.000000  0    -230632.817   3368719.173  -6011693.704
10 0 59947  45702.000000  0      -4894.164   4118099.475  -5529893.060
10 0 59947  45822.000000  0     233385.007   4791939.163  -4951424.092
10 0 59947  45942.000000  0     478637.803   5378285.089  -4286311.103
10 0 59947  46062.000000  0     724971.792   5866777.223  -3546112.666
10 0 59947  46182.000000  0     966300.722   6248842.161  -2743728.928
10 0 59947  46302.000000  0    1196484.069   6517856.040  -1893182.301
10 0 59947  46422.000000  0    1409471.389   6669272.372  -1009373.735
10 0 59947  46542.000000  0    1599448.097   6700710.244   -107818.827
10 0 59947  46662.000000  0    1760978.634   6611998.973    795630.774
10 0 59947  46782.000000  0    1889142.512   6405178.567   1685073.409
10 0 59947  46902.000000  0    1979660.914   6084456.562   2544845.290
10 0 59947  47022.000000  0    2029010.370   5656121.586   3359804.167
10 0 59947  47142.000000  0    2034520.398   5128416.182   4115603.677
10 0 59947  47262.000000  0    1994451.722   4511370.434   4798951.635
10 0 59947  47382.000000  0    1908054.497   3816599.994   5397846.542
10 0 59947  47502.000000  0    1775604.003   3057077.358   5901784.227
10 0 59947  47622.000000  0    1598415.426   2246883.605   6301937.876
10 0 59947  47742.000000  0    1378835.852   1400941.355   6591308.157
10 0 59947  47862.000000  0    1120214.211    534735.277   6764839.083
10 0 59947  47982.000000  0     826850.077   -335971.800   6819499.781
10 0 59947  48102.000000  0     503922.082  -1195424.559   6754335.650
10 0 59947  48222.000000  0     157396.263  -2028160.726   6570484.594
10 0 59947  48342.000000  0    -206084.281  -2819289.328   6271158.350
10 0 59947  48462.000000  0    -579325.826  -3554758.512   5861588.377
10 0 59947  48582.000000  0    -954723.513  -4221605.639   5348937.805
10 0 59947  48702.000000  0   -1324413.117  -4808188.774   4742184.204
10 0 59947  48822.000000  0   -1680434.324  -5304398.290   4051970.401
10 0 59947  48942.000000  0   -2014900.404  -5701841.507   3290421.287
10 0 59947  49062.000000  0   -2320170.633  -5993993.556   2470931.005
10 0 59947  49182.000000  0   -2589021.393  -6176311.694   1607925.599
10 0 59947  49302.000000  0   -2814811.287  -6246311.496    716604.459
10 0 59947  49422.000000  0   -2991636.434  -6203602.094   -187334.356
10 0 59947  49542.000000  0   -3114471.912  -6049879.232  -1087979.089
10 0 59947  49662.000000  0   -3179295.904  -5788875.955  -1969493.416
10 0 59947  49782.000000  0   -3183193.421  -5426272.189  -2816402.916
10 0 59947  49902.000000  0   -3124436.801  -4969565.849  -3613872.831
10 0 59947  50022.000000  0   -3002540.589  -4427909.024  -4347970.145
10 0 59947  50142.000000  0   -2818290.537  -3811915.457  -5005904.568
10 0 59947  50262.000000  0   -2573747.151  -3133444.488  -5576245.492
10 0 59947  50382.000000  0   -2272224.252  -2405366.349  -6049111.957
10 0 59947  50502.000000  0   -1918242.464  -1641314.108  -6416333.757
10 0 59947  50622.000000  0   -1517458.669   -855426.964  -6671581.160
10 0 59947  50742.000000  0   -1076574.589    -62090.504  -6810462.211
10 0 59947  50862.000000  0    -603225.940    724321.286  -6830589.218
10 0 59947  50982.000000  0    -105852.337   1489699.603  -6731615.385
10 0 59947  51102.000000  0     406448.605   2220447.000  -6515239.917
10 0 59947  51222.000000  0     924082.931   2903713.800  -6185184.333
10 0 59947  51342.000000  0    1437136.605   3527621.808  -5747135.465
10 0 59947  51462.000000  0    1935560.898   4081470.359  -5208656.517
10 0 59947  51582.000000  0    2409366.229   4555922.489  -4579068.392
10 0 59947  51702.000000  0    2848820.801   4943168.966  -3869299.490
10 0 59947  51822.000000  0    3244649.549   5237065.027  -3091705.113
10 0 59947  51942.000000  0    3588230.521   5433237.417  -2259859.506
10 0 59947  52062.000000  0    3871783.464   5529157.693  -1388321.619
10 0 59947  52182.000000  0    4088545.226   5524180.176   -492379.549
10 0 59947  52302.000000  0    4232927.578   5419542.502    412222.309
10 0 59947  52422.000000  0    4300653.397   5218327.430   1309567.163
99
